ISS (ZARYA)             
1 25544U 98067A   25364.14573551  .00004955  00000+0  98268-4 0  9990
2 25544  51.6332  56.2707 0007469 318.0919  41.9497 15.48928231545557
CSS (TIANHE)            
1 48274U 21035A   25364.13310625  .00025691  00000+0  31261-3 0  9995
2 48274  41.4672 271.0575 0009498 180.1911 179.8925 15.59892918266742
ISS (NAUKA)             
1 49044U 21066A   25364.14573551  .00004955  00000+0  98268-4 0  9996
2 49044  51.6332  56.2707 0007469 318.0919  41.9497 15.48928231230447
FREGAT DEB              
1 49271U 11037PF  25364.13924125  .00017716  00000+0  38693-1 0  9993
2 49271  51.6543 147.9849 0869686 261.8870  88.2548 12.34688992204087
CSS (WENTIAN)           
1 53239U 22085A   25364.13310625  .00025691  00000+0  31261-3 0  9998
2 53239  41.4672 271.0575 0009498 180.1911 179.8925 15.59892918173847
CSS (MENGTIAN)          
1 54216U 22143A   25364.13310625  .00025691  00000+0  31261-3 0  9999
2 54216  41.4672 271.0575 0009498 180.1911 179.8925 15.59892918158644
SHENZHOU-20 (SZ-20)     
1 63632U 25082A   25364.13310625  .00025691  00000+0  31261-3 0  9996
2 63632  41.4672 271.0575 0009498 180.1911 179.8925 15.59892918255307
PROGRESS-MS 31          
1 64751U 25146A   25364.14573551  .00004955  00000+0  98268-4 0  9991
2 64751  51.6332  56.2707 0007469 318.0919  41.9497 15.48928231  6754
TIANZHOU-9              
1 64786U 25149A   25364.13310625  .00025691  00000+0  31261-3 0  9991
2 64786  41.4672 271.0575 0009498 180.1911 179.8925 15.59892918255308
CREW DRAGON 11          
1 65077U 25166A   25364.14573551  .00004955  00000+0  98268-4 0  9995
2 65077  51.6332  56.2707 0007469 318.0919  41.9497 15.48928231  2145
DRAGON CRS-33           
1 65304U 25186A   25364.14573551  .00004955  00000+0  98268-4 0  9990
2 65304  51.6332  56.2707 0007469 318.0919  41.9497 15.48928231   113
PROGRESS-MS 32          
1 65586U 25204A   25364.14573551  .00004955  00000+0  98268-4 0  9993
2 65586  51.6332  56.2707 0007469 318.0919  41.9497 15.48928231   272
