CCSDS_OMM_VERS = 2.0
CREATION_DATE  = 
ORIGINATOR     = 

OBJECT_NAME    = ISS (ZARYA)
OBJECT_ID      = 1998-067A
CENTER_NAME    = EARTH
REF_FRAME      = TEME
TIME_SYSTEM    = UTC
MEAN_ELEMENT_THEORY = SGP/SGP4

EPOCH          = 2025-12-30T03:29:51.548064
MEAN_MOTION    = 15.48928231
ECCENTRICITY   = .0007469
INCLINATION    = 51.6332
RA_OF_ASC_NODE = 56.2707
ARG_OF_PERICENTER = 318.0919
MEAN_ANOMALY   = 41.9497

EPHEMERIS_TYPE = 0
CLASSIFICATION_TYPE = U
NORAD_CAT_ID   = 25544
ELEMENT_SET_NO = 999
REV_AT_EPOCH   = 54555
BSTAR          = .98267799E-4
MEAN_MOTION_DOT = .4955E-4
MEAN_MOTION_DDOT = 0

CCSDS_OMM_VERS = 2.0
CREATION_DATE  = 
ORIGINATOR     = 

OBJECT_NAME    = CSS (TIANHE)
OBJECT_ID      = 2021-035A
CENTER_NAME    = EARTH
REF_FRAME      = TEME
TIME_SYSTEM    = UTC
MEAN_ELEMENT_THEORY = SGP/SGP4

EPOCH          = 2025-12-30T03:11:40.380000
MEAN_MOTION    = 15.59892918
ECCENTRICITY   = .0009498
INCLINATION    = 41.4672
RA_OF_ASC_NODE = 271.0575
ARG_OF_PERICENTER = 180.1911
MEAN_ANOMALY   = 179.8925

EPHEMERIS_TYPE = 0
CLASSIFICATION_TYPE = U
NORAD_CAT_ID   = 48274
ELEMENT_SET_NO = 999
REV_AT_EPOCH   = 26674
BSTAR          = .31260929E-3
MEAN_MOTION_DOT = .25691E-3
MEAN_MOTION_DDOT = 0

CCSDS_OMM_VERS = 2.0
CREATION_DATE  = 
ORIGINATOR     = 

OBJECT_NAME    = ISS (NAUKA)
OBJECT_ID      = 2021-066A
CENTER_NAME    = EARTH
REF_FRAME      = TEME
TIME_SYSTEM    = UTC
MEAN_ELEMENT_THEORY = SGP/SGP4

EPOCH          = 2025-12-30T03:29:51.548064
MEAN_MOTION    = 15.48928231
ECCENTRICITY   = .0007469
INCLINATION    = 51.6332
RA_OF_ASC_NODE = 56.2707
ARG_OF_PERICENTER = 318.0919
MEAN_ANOMALY   = 41.9497

EPHEMERIS_TYPE = 0
CLASSIFICATION_TYPE = U
NORAD_CAT_ID   = 49044
ELEMENT_SET_NO = 999
REV_AT_EPOCH   = 23044
BSTAR          = .98267799E-4
MEAN_MOTION_DOT = .4955E-4
MEAN_MOTION_DDOT = 0

CCSDS_OMM_VERS = 2.0
CREATION_DATE  = 
ORIGINATOR     = 

OBJECT_NAME    = FREGAT DEB
OBJECT_ID      = 2011-037PF
CENTER_NAME    = EARTH
REF_FRAME      = TEME
TIME_SYSTEM    = UTC
MEAN_ELEMENT_THEORY = SGP/SGP4

EPOCH          = 2025-12-30T03:20:30.444000
MEAN_MOTION    = 12.34688992
ECCENTRICITY   = .08696862
INCLINATION    = 51.6543
RA_OF_ASC_NODE = 147.9849
ARG_OF_PERICENTER = 261.8870
MEAN_ANOMALY   = 88.2548

EPHEMERIS_TYPE = 0
CLASSIFICATION_TYPE = U
NORAD_CAT_ID   = 49271
ELEMENT_SET_NO = 999
REV_AT_EPOCH   = 20408
BSTAR          = .38692879E-1
MEAN_MOTION_DOT = .17716E-3
MEAN_MOTION_DDOT = 0

CCSDS_OMM_VERS = 2.0
CREATION_DATE  = 
ORIGINATOR     = 

OBJECT_NAME    = CSS (WENTIAN)
OBJECT_ID      = 2022-085A
CENTER_NAME    = EARTH
REF_FRAME      = TEME
TIME_SYSTEM    = UTC
MEAN_ELEMENT_THEORY = SGP/SGP4

EPOCH          = 2025-12-30T03:11:40.380000
MEAN_MOTION    = 15.59892918
ECCENTRICITY   = .0009498
INCLINATION    = 41.4672
RA_OF_ASC_NODE = 271.0575
ARG_OF_PERICENTER = 180.1911
MEAN_ANOMALY   = 179.8925

EPHEMERIS_TYPE = 0
CLASSIFICATION_TYPE = U
NORAD_CAT_ID   = 53239
ELEMENT_SET_NO = 999
REV_AT_EPOCH   = 17384
BSTAR          = .31260929E-3
MEAN_MOTION_DOT = .25691E-3
MEAN_MOTION_DDOT = 0

CCSDS_OMM_VERS = 2.0
CREATION_DATE  = 
ORIGINATOR     = 

OBJECT_NAME    = CSS (MENGTIAN)
OBJECT_ID      = 2022-143A
CENTER_NAME    = EARTH
REF_FRAME      = TEME
TIME_SYSTEM    = UTC
MEAN_ELEMENT_THEORY = SGP/SGP4

EPOCH          = 2025-12-30T03:11:40.380000
MEAN_MOTION    = 15.59892918
ECCENTRICITY   = .0009498
INCLINATION    = 41.4672
RA_OF_ASC_NODE = 271.0575
ARG_OF_PERICENTER = 180.1911
MEAN_ANOMALY   = 179.8925

EPHEMERIS_TYPE = 0
CLASSIFICATION_TYPE = U
NORAD_CAT_ID   = 54216
ELEMENT_SET_NO = 999
REV_AT_EPOCH   = 15864
BSTAR          = .31260929E-3
MEAN_MOTION_DOT = .25691E-3
MEAN_MOTION_DDOT = 0

CCSDS_OMM_VERS = 2.0
CREATION_DATE  = 
ORIGINATOR     = 

OBJECT_NAME    = SHENZHOU-20 (SZ-20)
OBJECT_ID      = 2025-082A
CENTER_NAME    = EARTH
REF_FRAME      = TEME
TIME_SYSTEM    = UTC
MEAN_ELEMENT_THEORY = SGP/SGP4

EPOCH          = 2025-12-30T03:11:40.380000
MEAN_MOTION    = 15.59892918
ECCENTRICITY   = .0009498
INCLINATION    = 41.4672
RA_OF_ASC_NODE = 271.0575
ARG_OF_PERICENTER = 180.1911
MEAN_ANOMALY   = 179.8925

EPHEMERIS_TYPE = 0
CLASSIFICATION_TYPE = U
NORAD_CAT_ID   = 63632
ELEMENT_SET_NO = 999
REV_AT_EPOCH   = 25530
BSTAR          = .31260929E-3
MEAN_MOTION_DOT = .25691E-3
MEAN_MOTION_DDOT = 0

CCSDS_OMM_VERS = 2.0
CREATION_DATE  = 
ORIGINATOR     = 

OBJECT_NAME    = PROGRESS-MS 31
OBJECT_ID      = 2025-146A
CENTER_NAME    = EARTH
REF_FRAME      = TEME
TIME_SYSTEM    = UTC
MEAN_ELEMENT_THEORY = SGP/SGP4

EPOCH          = 2025-12-30T03:29:51.548064
MEAN_MOTION    = 15.48928231
ECCENTRICITY   = .0007469
INCLINATION    = 51.6332
RA_OF_ASC_NODE = 56.2707
ARG_OF_PERICENTER = 318.0919
MEAN_ANOMALY   = 41.9497

EPHEMERIS_TYPE = 0
CLASSIFICATION_TYPE = U
NORAD_CAT_ID   = 64751
ELEMENT_SET_NO = 999
REV_AT_EPOCH   = 675
BSTAR          = .98267799E-4
MEAN_MOTION_DOT = .4955E-4
MEAN_MOTION_DDOT = 0

CCSDS_OMM_VERS = 2.0
CREATION_DATE  = 
ORIGINATOR     = 

OBJECT_NAME    = TIANZHOU-9
OBJECT_ID      = 2025-149A
CENTER_NAME    = EARTH
REF_FRAME      = TEME
TIME_SYSTEM    = UTC
MEAN_ELEMENT_THEORY = SGP/SGP4

EPOCH          = 2025-12-30T03:11:40.380000
MEAN_MOTION    = 15.59892918
ECCENTRICITY   = .0009498
INCLINATION    = 41.4672
RA_OF_ASC_NODE = 271.0575
ARG_OF_PERICENTER = 180.1911
MEAN_ANOMALY   = 179.8925

EPHEMERIS_TYPE = 0
CLASSIFICATION_TYPE = U
NORAD_CAT_ID   = 64786
ELEMENT_SET_NO = 999
REV_AT_EPOCH   = 25530
BSTAR          = .31260929E-3
MEAN_MOTION_DOT = .25691E-3
MEAN_MOTION_DDOT = 0

CCSDS_OMM_VERS = 2.0
CREATION_DATE  = 
ORIGINATOR     = 

OBJECT_NAME    = CREW DRAGON 11
OBJECT_ID      = 2025-166A
CENTER_NAME    = EARTH
REF_FRAME      = TEME
TIME_SYSTEM    = UTC
MEAN_ELEMENT_THEORY = SGP/SGP4

EPOCH          = 2025-12-30T03:29:51.548064
MEAN_MOTION    = 15.48928231
ECCENTRICITY   = .0007469
INCLINATION    = 51.6332
RA_OF_ASC_NODE = 56.2707
ARG_OF_PERICENTER = 318.0919
MEAN_ANOMALY   = 41.9497

EPHEMERIS_TYPE = 0
CLASSIFICATION_TYPE = U
NORAD_CAT_ID   = 65077
ELEMENT_SET_NO = 999
REV_AT_EPOCH   = 214
BSTAR          = .98267799E-4
MEAN_MOTION_DOT = .4955E-4
MEAN_MOTION_DDOT = 0

CCSDS_OMM_VERS = 2.0
CREATION_DATE  = 
ORIGINATOR     = 

OBJECT_NAME    = DRAGON CRS-33
OBJECT_ID      = 2025-186A
CENTER_NAME    = EARTH
REF_FRAME      = TEME
TIME_SYSTEM    = UTC
MEAN_ELEMENT_THEORY = SGP/SGP4

EPOCH          = 2025-12-30T03:29:51.548064
MEAN_MOTION    = 15.48928231
ECCENTRICITY   = .0007469
INCLINATION    = 51.6332
RA_OF_ASC_NODE = 56.2707
ARG_OF_PERICENTER = 318.0919
MEAN_ANOMALY   = 41.9497

EPHEMERIS_TYPE = 0
CLASSIFICATION_TYPE = U
NORAD_CAT_ID   = 65304
ELEMENT_SET_NO = 999
REV_AT_EPOCH   = 11
BSTAR          = .98267799E-4
MEAN_MOTION_DOT = .4955E-4
MEAN_MOTION_DDOT = 0

CCSDS_OMM_VERS = 2.0
CREATION_DATE  = 
ORIGINATOR     = 

OBJECT_NAME    = PROGRESS-MS 32
OBJECT_ID      = 2025-204A
CENTER_NAME    = EARTH
REF_FRAME      = TEME
TIME_SYSTEM    = UTC
MEAN_ELEMENT_THEORY = SGP/SGP4

EPOCH          = 2025-12-30T03:29:51.548064
MEAN_MOTION    = 15.48928231
ECCENTRICITY   = .0007469
INCLINATION    = 51.6332
RA_OF_ASC_NODE = 56.2707
ARG_OF_PERICENTER = 318.0919
MEAN_ANOMALY   = 41.9497

EPHEMERIS_TYPE = 0
CLASSIFICATION_TYPE = U
NORAD_CAT_ID   = 65586
ELEMENT_SET_NO = 999
REV_AT_EPOCH   = 27
BSTAR          = .98267799E-4
MEAN_MOTION_DOT = .4955E-4
MEAN_MOTION_DDOT = 0

